ONEWEB-0094             
1 45450U 20020AC  24170.90135957 -.00008055  00000+0 -20825-1 0  9992
2 45450  87.9164 150.8190 0002158  88.6426 271.4953 13.17562896210405
ONEWEB-0087             
1 45451U 20020AD  24170.54969424 -.00000465  00000+0 -13481-2 0  9995
2 45451  87.8953 166.0237 0002218  95.4414 264.6967 13.11415810207099
ONEWEB-0082             
1 45452U 20020AE  24170.69903730 -.00000383  00000+0 -11156-2 0  9996
2 45452  87.8958 165.9972 0002085  86.6085 273.5282 13.11416012207192
ONEWEB-0050             
1 45453U 20020AF  24170.87573062  .00002937  00000+0  30394-3 0  9999
2 45453  88.0030  27.7181 0005587  83.4367 276.7497 14.89772654231870
ONEWEB-0034             
1 45454U 20020AG  24170.94995669 -.00000468  00000+0 -13572-2 0  9996
2 45454  87.8960 165.9668 0002103  88.5265 271.6104 13.11418125207145
ONEWEB-0086             
1 45456U 20020AJ  24170.74652550 -.00000097  00000+0 -30974-3 0  9999
2 45456  87.8956 166.0082 0002419  95.8159 264.3245 13.11420910207136
ONEWEB-0088             
1 45457U 20020AK  24170.95335676 -.00000185  00000+0 -55844-3 0  9991
2 45457  87.8955 165.9325 0002117  91.2090 268.9281 13.11416890207090
